FENGYUN 1C DEB          
1 35129U 99025DLH 17345.85686691  .00001370  00000-0  79663-3 0  9999
2 35129  98.2680   3.3891 0139625  66.5991 294.9792 14.05290723493541
